STARLINK-2586           
1 48390U 21038AP  26160.56888209  .00001996  00000+0  76044-4 0  9998
2 48390  53.1602 265.2575 0001217  84.2557 275.8584 15.31704358282735
STARLINK-2607           
1 48391U 21038AQ  26160.98804091  .00003421  00000+0  12192-3 0  9990
2 48391  53.1576 263.6575 0001067  93.1344 266.9779 15.31709672282791
STARLINK-2605           
1 48392U 21038AR  26161.00696276 -.00000037  00000+0  10577-4 0  9996
2 48392  53.1595 263.1091 0001098  75.3321 284.7802 15.31702445282800
STARLINK-2574           
1 48395U 21038AU  26161.02126167  .00005081  00000+0  17532-3 0  9998
2 48395  53.1589 265.4011 0001250  73.7382 286.3757 15.31712628282779
STARLINK-2575           
1 48396U 21038AV  26160.60148237  .00003571  00000+0  12679-3 0  9993
2 48396  53.1603 264.9520 0001882  54.9095 305.2083 15.31697755282742
STARLINK-2590           
1 48397U 21038AW  26161.00231682 -.00001666  00000+0 -41935-4 0  9999
2 48397  53.1608 263.2206 0001146  82.9718 277.1414 15.31703943282806
STARLINK-2588           
1 48398U 21038AX  26160.61340946  .00028563  00000+0  13091-2 0  9993
2 48398  53.0740 279.2031 0004314  34.8011 325.3266 15.20260691282524
STARLINK-2587           
1 48399U 21038AY  26160.98834169  .00000996  00000+0  43863-4 0  9991
2 48399  53.1593 263.2175 0001148  92.0850 268.0283 15.31698390282797
STARLINK-2576           
1 48400U 21038AZ  26161.01167247  .00002206  00000+0  82804-4 0  9999
2 48400  53.1590 263.4009 0001245  71.1303 288.9833 15.31709246281585
STARLINK-2571           
1 48401U 21038BA  26160.98337937  .00000572  00000+0  30202-4 0  9999
2 48401  53.1586 263.5615 0001020  81.0984 279.0133 15.31701787281576
STARLINK-2593           
1 48404U 21038BD  26160.98367040  .00001403  00000+0  56937-4 0  9997
2 48404  53.1581 263.3391 0001157  96.0926 264.0208 15.31709581281584
STARLINK-2570           
1 48405U 21038BE  26160.99769020  .00001377  00000+0  56125-4 0  9992
2 48405  53.1586 263.4488 0001025  80.5062 279.6056 15.31698531281575
STARLINK-2568           
1 48406U 21038BF  26160.57395907  .00002980  00000+0  10771-3 0  9993
2 48406  53.1609 268.4181 0001178  81.9708 278.1427 15.31710441281478
STARLINK-2592           
1 48408U 21038BH  26161.21212430  .00001053  00000+0  45708-4 0  9995
2 48408  53.1598 262.7553 0001654  83.2908 276.8281 15.31704756281603
STARLINK-2563           
1 48410U 21038BK  26160.90490823  .00004125  00000+0  14457-3 0  9996
2 48410  53.1592 227.6046 0001497  87.1361 272.9812 15.31709135282073
STARLINK-2505           
1 48411U 21038BL  26160.88988507  .00000783  00000+0  36987-4 0  9994
2 48411  53.1593 224.9548 0001290  91.9436 268.1714 15.31693648282102
STARLINK-2581           
1 48412U 21038BM  26160.47143225 -.00000109  00000+0  82598-5 0  9993
2 48412  53.1577 229.5068 0001201  83.6563 276.4575 15.31709438282005
STARLINK-2461           
1 48428U 21040A   26161.14600891  .00004568  00000+0  15888-3 0  9993
2 48428  53.1586 108.6416 0001250  99.3723 260.7420 15.31700274280846
STARLINK-2700           
1 48431U 21040D   26161.27933610  .00006240  00000+0  21261-3 0  9990
2 48431  53.1593  82.0917 0001495  85.1835 274.9337 15.31712689281216
STARLINK-2680           
1 48432U 21040E   26161.07893791  .00000969  00000+0  43005-4 0  9997
2 48432  53.1614  83.1333 0001389 111.2831 248.8319 15.31699201281173
STARLINK-2699           
1 48433U 21040F   26161.09754154 -.00001747  00000+0 -44569-4 0  9992
2 48433  53.1592  82.7541 0000975  70.4675 289.6432 15.31688561281184
STARLINK-2692           
1 48434U 21040G   26161.07925224  .00001136  00000+0  48368-4 0  9990
2 48434  53.1590  82.9970 0001333  97.5587 262.5565 15.31701695281194
STARLINK-2633           
1 48435U 21040H   26161.31960735  .00015718  00000+0  51640-3 0  9991
2 48435  53.1591  94.3710 0001189 104.1507 255.9626 15.31750575281040
STARLINK-2639           
1 48436U 21040J   26161.16423773  .00001912  00000+0  73363-4 0  9999
2 48436  53.1583 107.9736 0001349  92.5013 267.6143 15.31696611280842
STARLINK-2642           
1 48437U 21040K   26161.17694869 -.00002991  00000+0 -84644-4 0  9991
2 48437  53.1588 120.8093 0001341  89.6788 270.4367 15.31701696280666
STARLINK-2640           
1 48438U 21040L   26161.16458146  .00001507  00000+0  60337-4 0  9990
2 48438  53.1592 108.0347 0001253  77.6490 282.4651 15.31692435280840
STARLINK-2583           
1 48439U 21040M   26161.11333808  .00002323  00000+0  86637-4 0  9991
2 48439  53.1603 108.4514 0001214  79.0045 281.1093 15.31690361280834
STARLINK-2682           
1 48440U 21040N   26161.28108799  .00005100  00000+0  17595-3 0  9992
2 48440  53.1589 107.4000 0001194  98.1717 261.9420 15.31707259280861
STARLINK-2702           
1 48441U 21040P   26161.15525761  .00002516  00000+0  92835-4 0  9990
2 48441  53.1587 108.0781 0001304 105.3961 254.7185 15.31697955280845
STARLINK-2644           
1 48442U 21040Q   26161.16873977  .00063693  00000+0  13608-2 0  9999
2 48442  53.1590 106.0725 0001523 142.6899 217.4214 15.44272148280872
