OBJECT_NAME,OBJECT_ID,EPOCH,MEAN_MOTION,ECCENTRICITY,INCLINATION,RA_OF_ASC_NODE,ARG_OF_PERICENTER,MEAN_ANOMALY,EPHEMERIS_TYPE,CLASSIFICATION_TYPE,NORAD_CAT_ID,ELEMENT_SET_NO,REV_AT_EPOCH,BSTAR,MEAN_MOTION_DOT,MEAN_MOTION_DDOT
STARLINK-2586,2021-038AP,2026-06-09T13:39:11.412576,15.31704358,.00012178,53.1602,265.2575,84.2557,275.8584,0,U,48390,999,28273,.76043811E-4,.1996E-4,0
STARLINK-2607,2021-038AQ,2026-06-09T23:42:46.734624,15.31709672,.00010675,53.1576,263.6575,93.1344,266.9779,0,U,48391,999,28279,.12191999E-3,.3421E-4,0
STARLINK-2605,2021-038AR,2026-06-10T00:10:01.582464,15.31702445,.00010984,53.1595,263.1091,75.3321,284.7802,0,U,48392,999,28280,.10576943E-4,-.37E-6,0
STARLINK-2574,2021-038AU,2026-06-10T00:30:37.008288,15.31712628,.00012505,53.1589,265.4011,73.7382,286.3757,0,U,48395,999,28277,.17531894E-3,.5081E-4,0
STARLINK-2575,2021-038AV,2026-06-09T14:26:08.076768,15.31697755,.00018824,53.1603,264.9520,54.9095,305.2083,0,U,48396,999,28274,.12678977E-3,.3571E-4,0
STARLINK-2590,2021-038AW,2026-06-10T00:03:20.173248,15.31703943,.00011461,53.1608,263.2206,82.9718,277.1414,0,U,48397,999,28280,-.41934912E-4,-.1666E-4,0
STARLINK-2588,2021-038AX,2026-06-09T14:43:18.577344,15.20260691,.00043149,53.0740,279.2031,34.8011,325.3266,0,U,48398,999,28252,.13091391E-2,.28563E-3,0
STARLINK-2587,2021-038AY,2026-06-09T23:43:12.722016,15.31698390,.00011484,53.1593,263.2175,92.0850,268.0283,0,U,48399,999,28279,.43862734E-4,.996E-5,0
STARLINK-2576,2021-038AZ,2026-06-10T00:16:48.501408,15.31709246,.00012454,53.1590,263.4009,71.1303,288.9833,0,U,48400,999,28158,.82804271E-4,.2206E-4,0
STARLINK-2571,2021-038BA,2026-06-09T23:36:03.977568,15.31701787,.00010203,53.1586,263.5615,81.0984,279.0133,0,U,48401,999,28157,.30201744E-4,.572E-5,0
STARLINK-2593,2021-038BD,2026-06-09T23:36:29.122560,15.31709581,.00011575,53.1581,263.3391,96.0926,264.0208,0,U,48404,999,28158,.56936519E-4,.1403E-4,0
STARLINK-2570,2021-038BE,2026-06-09T23:56:40.433280,15.31698531,.00010258,53.1586,263.4488,80.5062,279.6056,0,U,48405,999,28157,.56124836E-4,.1377E-4,0
STARLINK-2568,2021-038BF,2026-06-09T13:46:30.063648,15.31710441,.00011787,53.1609,268.4181,81.9708,278.1427,0,U,48406,999,28147,.10770974E-3,.298E-4,0
STARLINK-2592,2021-038BH,2026-06-10T05:05:27.539520,15.31704756,.00016541,53.1598,262.7553,83.2908,276.8281,0,U,48408,999,28160,.45708006E-4,.1053E-4,0
STARLINK-2563,2021-038BK,2026-06-09T21:43:04.071072,15.31709135,.00014971,53.1592,227.6046,87.1361,272.9812,0,U,48410,999,28207,.1445683E-3,.4125E-4,0
STARLINK-2505,2021-038BL,2026-06-09T21:21:26.070048,15.31693648,.00012904,53.1593,224.9548,91.9436,268.1714,0,U,48411,999,28210,.36987488E-4,.783E-5,0
STARLINK-2581,2021-038BM,2026-06-09T11:18:51.746400,15.31709438,.00012013,53.1577,229.5068,83.6563,276.4575,0,U,48412,999,28200,.8259834E-5,-.109E-5,0
STARLINK-2461,2021-040A,2026-06-10T03:30:15.169824,15.31700274,.00012506,53.1586,108.6416,99.3723,260.7420,0,U,48428,999,28084,.15887911E-3,.4568E-4,0
STARLINK-2700,2021-040D,2026-06-10T06:42:14.639040,15.31712689,.00014957,53.1593,82.0917,85.1835,274.9337,0,U,48431,999,28121,.21260847E-3,.624E-4,0
STARLINK-2680,2021-040E,2026-06-10T01:53:40.235424,15.31699201,.00013892,53.1614,83.1333,111.2831,248.8319,0,U,48432,999,28117,.43004622E-4,.969E-5,0
STARLINK-2699,2021-040F,2026-06-10T02:20:27.589056,15.31688561,.00009753,53.1592,82.7541,70.4675,289.6432,0,U,48433,999,28118,-.44569039E-4,-.1747E-4,0
STARLINK-2692,2021-040G,2026-06-10T01:54:07.393536,15.31701695,.00013334,53.1590,82.9970,97.5587,262.5565,0,U,48434,999,28119,.48368036E-4,.1136E-4,0
STARLINK-2633,2021-040H,2026-06-10T07:40:14.075040,15.31750575,.00011891,53.1591,94.3710,104.1507,255.9626,0,U,48435,999,28104,.5164021E-3,.15718E-3,0
STARLINK-2639,2021-040J,2026-06-10T03:56:30.139872,15.31696611,.00013497,53.1583,107.9736,92.5013,267.6143,0,U,48436,999,28084,.73363449E-4,.1912E-4,0
STARLINK-2642,2021-040K,2026-06-10T04:14:48.366816,15.31701696,.00013414,53.1588,120.8093,89.6788,270.4367,0,U,48437,999,28066,-.84643653E-4,-.2991E-4,0
STARLINK-2640,2021-040L,2026-06-10T03:56:59.838144,15.31692435,.0001253,53.1592,108.0347,77.6490,282.4651,0,U,48438,999,28084,.60336999E-4,.1507E-4,0
STARLINK-2583,2021-040M,2026-06-10T02:43:12.410112,15.31690361,.00012145,53.1603,108.4514,79.0045,281.1093,0,U,48439,999,28083,.86636918E-4,.2323E-4,0
STARLINK-2682,2021-040N,2026-06-10T06:44:46.002336,15.31707259,.00011944,53.1589,107.4000,98.1717,261.9420,0,U,48440,999,28086,.17594635E-3,.51E-4,0
STARLINK-2702,2021-040P,2026-06-10T03:43:34.257504,15.31697955,.00013049,53.1587,108.0781,105.3961,254.7185,0,U,48441,999,28084,.92835232E-4,.2516E-4,0
STARLINK-2644,2021-040Q,2026-06-10T04:02:59.116128,15.44272148,.00015237,53.1590,106.0725,142.6899,217.4214,0,U,48442,999,28087,.13608292E-2,.63693E-3,0
